0 THORAD DELTA 1 DEB
1 09988U 74089EF  13281.67583124  .00002047  00000-0  16659-2 0  2437
2 09988 103.0626 319.2254 0287093 004.6054 114.9721 13.74316290864647
0 THORAD DELTA 1 DEB
1 09988U 74089EF  13283.77863221  .00002407  00000-0  19489-2 0  2444
2 09988 103.0631 322.0929 0287084 359.8458 078.7313 13.74327262864934
0 THORAD DELTA 1 DEB
1 09988U 74089EF  13285.88802610  .00002164  00000-0  17573-2 0  2456
2 09988 103.0630 324.9700 0287130 355.0667 075.1818 13.74334962865222
0 THORAD DELTA 1 DEB
1 09988U 74089EF  13288.06805560  .00003193  00000-0  25646-2 0  2460
2 09988 103.0623 327.9437 0287190 350.1387 061.1677 13.74345209865522
0 THORAD DELTA 1 DEB
1 09988U 74089EF  13290.41028479  .00002579  00000-0  20826-2 0  2471
2 09988 103.0614 331.1386 0287245 344.8406 129.7547 13.74356790865844
0 THORAD DELTA 1 DEB
1 09988U 74089EF  13292.79946700  .00002573  00000-0  20770-2 0  2483
2 09988 103.0607 334.3972 0287300 339.4421 070.7464 13.74366850866179
0 THORAD DELTA 1 DEB
1 09988U 74089EF  13294.83720899  .00002758  00000-0  22216-2 0  2492
2 09988 103.0606 337.1763 0287329 334.8479 072.9735 13.74375728866450
